JILIN-1 03              
1 41914U 17002B   26195.60720217  .00007726  00000+0  18171-3 0  9999
2 41914  97.1945 202.3173 0007900  80.9355 279.2786 15.42221632526080
CARTOSAT-2D             
1 41948U 17008A   26195.62363405  .00002910  00000+0  14111-3 0  9996
2 41948  97.4100 254.4143 0005940 140.2477 219.9194 15.19284867521740
CARTOSAT-2E             
1 42767U 17036C   26195.64139142  .00002613  00000+0  12719-3 0  9990
2 42767  97.4265 254.9890 0003183 191.6751 168.4410 15.19252946502312
IRIDIUM 113             
1 42803U 17039A   26195.58961966  .00000012  00000+0 -26072-5 0  9995
2 42803  86.3991 310.7258 0002120  91.0986 269.0453 14.34217220475112
NORSAT 2                
1 42828U 17042D   26195.44007246  .00005744  00000+0  25132-3 0  9993
2 42828  97.4048   8.4596 0008264 321.0174  39.0466 15.22418888491883
TECHNOSAT               
1 42829U 17042E   26195.37528415  .00001874  00000+0  13547-3 0  9999
2 42829  97.4314 352.0048 0017510   6.1550 353.9889 15.05108329490796
FLYING LAPTOP           
1 42831U 17042G   26195.58021759  .00002177  00000+0  17302-3 0  9994
2 42831  97.4797 350.0817 0019729  34.5222 325.7279 15.01310930490565
WNISAT 1R               
1 42835U 17042L   26195.40935502  .00000502  00000+0  42856-4 0  9992
2 42835  97.4822 350.5593 0010969  67.2316 293.0067 15.01857689490590
LEMUR-2-GREENBERG       
1 42837U 17042N   26195.45912462  .00009907  00000+0  32148-3 0  9999
2 42837  97.3823  15.9753 0007194 263.1794  96.8630 15.32137916492567
LEMUR-2-FURIAUS         
1 42840U 17042R   26195.47156358  .00009631  00000+0  32274-3 0  9993
2 42840  97.3769  13.8814 0005948 335.0787  25.0166 15.31116721492389
CORVUS BC2              
1 42846U 17042X   26195.42959660  .00001298  00000+0  91874-4 0  9994
2 42846  97.4090 355.7268 0013523  25.6312 334.5584 15.06454543491164
CORVUS BC1              
1 42847U 17042Y   26195.42120606  .00001251  00000+0  88366-4 0  9996
2 42847  97.4119 356.5502 0011734   2.9790 357.1506 15.06617331491191
VRSS-2                  
1 42954U 17060A   26195.61379743  .00000946  00000+0  12754-3 0  9991
2 42954  97.6502 232.1040 0017546  15.5857 344.5893 14.81239452472515
MOHAMMED VI-A           
1 43005U 17070A   26195.64638740  .00000949  00000+0  14151-3 0  9994
2 43005  97.9557 267.5982 0001233  95.0021 265.1330 14.77104529468032
FENGYUN 3D              
1 43010U 17072A   26195.56199990  .00000058  00000+0  49321-4 0  9991
2 43010  99.0135 170.4811 0001578  15.2192 344.9030 14.19744289448873
NOAA 20 (JPSS-1)        
1 43013U 17073A   26195.56146251  .00000011  00000+0  26237-4 0  9997
2 43013  98.7773 134.7815 0001361 125.3297 234.8006 14.19516359448354
MAKERSAT 0              
1 43016U 17073D   26195.60318524  .00011617  00000+0  30730-3 0  9995
2 43016  97.4584  78.3470 0105407 174.3522 185.8937 15.32992920470669
RADFXSAT (FOX-1B)       
1 43017U 17073E   26195.58998106  .00004198  00000+0  18450-3 0  9994
2 43017  97.4666  62.2466 0148235 233.5986 125.1498 15.13055354469539
JILIN-1 04              
1 43022U 17074A   26195.58674400  .00008527  00000+0  19466-3 0  9997
2 43022  97.4881 305.9451 0005265 101.9391 258.2447 15.43120573478494
JILIN-1 05              
1 43023U 17074B   26195.58199197  .00004986  00000+0  15264-3 0  9990
2 43023  97.4885 302.1161 0006426 126.3214 233.8622 15.34279640478204
JILIN-1 06              
1 43024U 17074C   26195.62301172  .00003432  00000+0  10678-3 0  9993
2 43024  97.4811 299.1305 0008062 135.8320 224.3568 15.33991806478040
IRIDIUM 116             
1 43072U 17083C   26195.35494302  .00000124  00000+0  37206-4 0  9996
2 43072  86.3985 310.6445 0002435  98.8202 261.3270 14.34217587448068
IRIDIUM 130             
1 43073U 17083D   26195.39300248  .00000134  00000+0  40707-4 0  9997
2 43073  86.3992 310.9065 0002244 100.7448 259.4000 14.34217766448014
LKW-2                   
1 43080U 17084A   26195.62546200  .00005614  00000+0  21643-3 0  9997
2 43080  97.1179 234.1424 0003616 120.5189 239.6408 15.26688874475871
SUPERVIEW-1 03          
1 43099U 18002A   26195.59087999  .00010930  00000+0  26380-3 0  9999
2 43099  97.3137 280.4022 0046981  83.2105 277.4484 15.40198895472584
CARTOSAT-2F             
1 43111U 18004A   26195.60808259  .00002233  00000+0  10914-3 0  9991
2 43111  97.4781 254.9728 0002742 135.9727 224.1726 15.19268965471495
LKW-3                   
1 43146U 18006A   26195.61956069  .00006387  00000+0  18621-3 0  9992
2 43146  97.6628 357.2787 0002983 181.0736 179.0501 15.35742134472927
ASNARO-2                
1 43152U 18007A   26195.59442529  .00004776  00000+0  20962-3 0  9999
2 43152  97.3969 202.0935 0001874  93.2357 266.9094 15.22419274471588
