OBJECT_NAME,OBJECT_ID,EPOCH,MEAN_MOTION,ECCENTRICITY,INCLINATION,RA_OF_ASC_NODE,ARG_OF_PERICENTER,MEAN_ANOMALY,EPHEMERIS_TYPE,CLASSIFICATION_TYPE,NORAD_CAT_ID,ELEMENT_SET_NO,REV_AT_EPOCH,BSTAR,MEAN_MOTION_DOT,MEAN_MOTION_DDOT
JILIN-1 03,2017-002B,2026-07-14T14:34:22.267488,15.42221632,.00079006,97.1945,202.3173,80.9355,279.2786,0,U,41914,999,52608,.18171233E-3,.7726E-4,0
CARTOSAT-2D,2017-008A,2026-07-14T14:58:01.981920,15.19284867,.00059407,97.4100,254.4143,140.2477,219.9194,0,U,41948,999,52174,.14110501E-3,.291E-4,0
CARTOSAT-2E,2017-036C,2026-07-14T15:23:36.218688,15.19252946,.00031832,97.4265,254.9890,191.6751,168.4410,0,U,42767,999,50231,.12719376E-3,.2613E-4,0
IRIDIUM 113,2017-039A,2026-07-14T14:09:03.138624,14.34217220,.00021206,86.3991,310.7258,91.0986,269.0453,0,U,42803,999,47511,-.2607178E-5,.12E-6,0
NORSAT 2,2017-042D,2026-07-14T10:33:42.260544,15.22418888,.00082649,97.4048,8.4596,321.0174,39.0466,0,U,42828,999,49188,.25132298E-3,.5744E-4,0
TECHNOSAT,2017-042E,2026-07-14T09:00:24.550560,15.05108329,.00175108,97.4314,352.0048,6.1550,353.9889,0,U,42829,999,49079,.13546681E-3,.1874E-4,0
FLYING LAPTOP,2017-042G,2026-07-14T13:55:30.799776,15.01310930,.0019729,97.4797,350.0817,34.5222,325.7279,0,U,42831,999,49056,.17301974E-3,.2177E-4,0
WNISAT 1R,2017-042L,2026-07-14T09:49:28.273728,15.01857689,.00109693,97.4822,350.5593,67.2316,293.0067,0,U,42835,999,49059,.42855884E-4,.502E-5,0
LEMUR-2-GREENBERG,2017-042N,2026-07-14T11:01:08.367168,15.32137916,.00071946,97.3823,15.9753,263.1794,96.8630,0,U,42837,999,49256,.32148482E-3,.9907E-4,0
LEMUR-2-FURIAUS,2017-042R,2026-07-14T11:19:03.093312,15.31116721,.00059489,97.3769,13.8814,335.0787,25.0166,0,U,42840,999,49238,.32273586E-3,.9631E-4,0
CORVUS BC2,2017-042X,2026-07-14T10:18:37.146240,15.06454543,.00135237,97.4090,355.7268,25.6312,334.5584,0,U,42846,999,49116,.91874492E-4,.1298E-4,0
CORVUS BC1,2017-042Y,2026-07-14T10:06:32.203584,15.06617331,.00117341,97.4119,356.5502,2.9790,357.1506,0,U,42847,999,49119,.88365851E-4,.1251E-4,0
VRSS-2,2017-060A,2026-07-14T14:43:52.097952,14.81239452,.00175465,97.6502,232.1040,15.5857,344.5893,0,U,42954,999,47251,.12754071E-3,.946E-5,0
MOHAMMED VI-A,2017-070A,2026-07-14T15:30:47.871360,14.77104529,.00012332,97.9557,267.5982,95.0021,265.1330,0,U,43005,999,46803,.1415081E-3,.949E-5,0
FENGYUN 3D,2017-072A,2026-07-14T13:29:16.791360,14.19744289,.00015784,99.0135,170.4811,15.2192,344.9030,0,U,43010,999,44887,.49320681E-4,.58E-6,0
NOAA 20 (JPSS-1),2017-073A,2026-07-14T13:28:30.360864,14.19516359,.00013613,98.7773,134.7815,125.3297,234.8006,0,U,43013,999,44835,.26236649E-4,.11E-6,0
MAKERSAT 0,2017-073D,2026-07-14T14:28:35.204736,15.32992920,.0105407,97.4584,78.3470,174.3522,185.8937,0,U,43016,999,47066,.30730004E-3,.11617E-3,0
RADFXSAT (FOX-1B),2017-073E,2026-07-14T14:09:34.363584,15.13055354,.01482355,97.4666,62.2466,233.5986,125.1498,0,U,43017,999,46953,.18449566E-3,.4198E-4,0
JILIN-1 04,2017-074A,2026-07-14T14:04:54.681600,15.43120573,.00052658,97.4881,305.9451,101.9391,258.2447,0,U,43022,999,47849,.19465632E-3,.8527E-4,0
JILIN-1 05,2017-074B,2026-07-14T13:58:04.106208,15.34279640,.0006426,97.4885,302.1161,126.3214,233.8622,0,U,43023,999,47820,.15264483E-3,.4986E-4,0
JILIN-1 06,2017-074C,2026-07-14T14:57:08.212608,15.33991806,.00080624,97.4811,299.1305,135.8320,224.3568,0,U,43024,999,47804,.10678132E-3,.3432E-4,0
IRIDIUM 116,2017-083C,2026-07-14T08:31:07.076928,14.34217587,.00024351,86.3985,310.6445,98.8202,261.3270,0,U,43072,999,44806,.3720553E-4,.124E-5,0
IRIDIUM 130,2017-083D,2026-07-14T09:25:55.414272,14.34217766,.00022447,86.3992,310.9065,100.7448,259.4000,0,U,43073,999,44801,.40706609E-4,.134E-5,0
LKW-2,2017-084A,2026-07-14T15:00:39.916800,15.26688874,.00036162,97.1179,234.1424,120.5189,239.6408,0,U,43080,999,47587,.21643338E-3,.5614E-4,0
SUPERVIEW-1 03,2018-002A,2026-07-14T14:10:52.031136,15.40198895,.00469818,97.3137,280.4022,83.2105,277.4484,0,U,43099,999,47258,.26380161E-3,.1093E-3,0
CARTOSAT-2F,2018-004A,2026-07-14T14:35:38.335776,15.19268965,.00027424,97.4781,254.9728,135.9727,224.1726,0,U,43111,999,47149,.10914241E-3,.2233E-4,0
LKW-3,2018-006A,2026-07-14T14:52:10.043616,15.35742134,.00029837,97.6628,357.2787,181.0736,179.0501,0,U,43146,999,47292,.18620598E-3,.6387E-4,0
ASNARO-2,2018-007A,2026-07-14T14:15:58.345056,15.22419274,.00018748,97.3969,202.0935,93.2357,266.9094,0,U,43152,999,47158,.20961898E-3,.4776E-4,0
